{
   "type": "FeatureCollection",
   "features": [
  {
    "type": "Feature",
    "geometry": {
       "type": "Point",
       "coordinates":  [ 1273326.893,272065.2155 ]
    },
    "properties": {
    "OBJECTID_1":1,
    "STATUS":"Existing / Under Construction",
    "NAME":"NE 145th Station",
    "STATION":"NE 145th"
    }
  },
  {
    "type": "Feature",
    "geometry": {
       "type": "Point",
       "coordinates":  [ 1273590.982,267659.8001 ]
    },
    "properties": {
    "OBJECTID_1":2,
    "STATUS":"Future",
    "NAME":"NE 130th Station",
    "STATION":"NE 130th"
    }
  },
  {
    "type": "Feature",
    "geometry": {
       "type": "Point",
       "coordinates":  [ 1274110.632,282258.0931 ]
    },
    "properties": {
    "OBJECTID_1":3,
    "STATUS":"Future",
    "NAME":"Shoreline Station",
    "STATION":"Shoreline"
    }
  },
  {
    "type": "Feature",
    "geometry": {
       "type": "Point",
       "coordinates":  [ 1276239.324,289849.7702 ]
    },
    "properties": {
    "OBJECTID_1":4,
    "STATUS":"Future",
    "NAME":"Mountlake Terrace Station",
    "STATION":"Mountlake Terrace"
    }
  },
  {
    "type": "Feature",
    "geometry": {
       "type": "Point",
       "coordinates":  [ 1281376.749,300928.8989 ]
    },
    "properties": {
    "OBJECTID_1":5,
    "STATUS":"Future",
    "NAME":"Lynnwood Station",
    "STATION":"Lynnwood"
    }
  },
  {
    "type": "Feature",
    "geometry": {
       "type": "Point",
       "coordinates":  [ 1275960.395,294765.9132 ]
    },
    "properties": {
    "OBJECTID_1":6,
    "STATUS":"Future",
    "NAME":"220th St SW Station",
    "STATION":"220th St SW"
    }
  },
  {
    "type": "Feature",
    "geometry": {
       "type": "Point",
       "coordinates":  [ 1269613.625,226704.922 ]
    },
    "properties": {
    "OBJECTID_1":7,
    "STATUS":"Existing / Under Construction",
    "NAME":"Westlake Station",
    "STATION":"Westlake"
    }
  },
  {
    "type": "Feature",
    "geometry": {
       "type": "Point",
       "coordinates":  [ 1269759.5,225329.5941 ]
    },
    "properties": {
    "OBJECTID_1":8,
    "STATUS":"Existing / Under Construction",
    "NAME":"University Street Station",
    "STATION":"University Street"
    }
  },
  {
    "type": "Feature",
    "geometry": {
       "type": "Point",
       "coordinates":  [ 1270907,223391.7971 ]
    },
    "properties": {
    "OBJECTID_1":9,
    "STATUS":"Existing / Under Construction",
    "NAME":"Pioneer Square Station",
    "STATION":"Pioneer Square"
    }
  },
  {
    "type": "Feature",
    "geometry": {
       "type": "Point",
       "coordinates":  [ 1271672.375,221842.75 ]
    },
    "properties": {
    "OBJECTID_1":10,
    "STATUS":"Existing / Under Construction",
    "NAME":"International District Station",
    "STATION":"International District / Chinatown"
    }
  },
  {
    "type": "Feature",
    "geometry": {
       "type": "Point",
       "coordinates":  [ 1271823.5,219195.984 ]
    },
    "properties": {
    "OBJECTID_1":11,
    "STATUS":"Existing / Under Construction",
    "NAME":"Stadium Station",
    "STATION":"Stadium"
    }
  },
  {
    "type": "Feature",
    "geometry": {
       "type": "Point",
       "coordinates":  [ 1271698.625,215537.6409 ]
    },
    "properties": {
    "OBJECTID_1":12,
    "STATUS":"Existing / Under Construction",
    "NAME":"SODO Station",
    "STATION":"SODO"
    }
  },
  {
    "type": "Feature",
    "geometry": {
       "type": "Point",
       "coordinates":  [ 1275599.08,214825.0931 ]
    },
    "properties": {
    "OBJECTID_1":13,
    "STATUS":"Existing / Under Construction",
    "NAME":"Beacon Hill Station",
    "STATION":"Beacon Hill"
    }
  },
  {
    "type": "Feature",
    "geometry": {
       "type": "Point",
       "coordinates":  [ 1278998.625,213746.7501 ]
    },
    "properties": {
    "OBJECTID_1":14,
    "STATUS":"Existing / Under Construction",
    "NAME":"Mount Baker Station",
    "STATION":"Mount Baker"
    }
  },
  {
    "type": "Feature",
    "geometry": {
       "type": "Point",
       "coordinates":  [ 1280113.124,207590.3461 ]
    },
    "properties": {
    "OBJECTID_1":15,
    "STATUS":"Existing / Under Construction",
    "NAME":"Columbia City Station",
    "STATION":"Columbia City"
    }
  },
  {
    "type": "Feature",
    "geometry": {
       "type": "Point",
       "coordinates":  [ 1282711.125,199607.4379 ]
    },
    "properties": {
    "OBJECTID_1":16,
    "STATUS":"Existing / Under Construction",
    "NAME":"Othello Station",
    "STATION":"Othello"
    }
  },
  {
    "type": "Feature",
    "geometry": {
       "type": "Point",
       "coordinates":  [ 1283140.75,193910.484 ]
    },
    "properties": {
    "OBJECTID_1":17,
    "STATUS":"Existing / Under Construction",
    "NAME":"Rainier Beach Station",
    "STATION":"Rainier Beach"
    }
  },
  {
    "type": "Feature",
    "geometry": {
       "type": "Point",
       "coordinates":  [ 1280612.5,172665.578 ]
    },
    "properties": {
    "OBJECTID_1":18,
    "STATUS":"Existing / Under Construction",
    "NAME":"Tukwila International Blvd Station",
    "STATION":"Tukwila International Blvd"
    }
  },
  {
    "type": "Feature",
    "geometry": {
       "type": "Point",
       "coordinates":  [ 1272340.585,260018.027 ]
    },
    "properties": {
    "OBJECTID_1":19,
    "STATUS":"Existing / Under Construction",
    "NAME":"Northgate Station",
    "STATION":"Northgate"
    }
  },
  {
    "type": "Feature",
    "geometry": {
       "type": "Point",
       "coordinates":  [ 1275186.28,250319.199 ]
    },
    "properties": {
    "OBJECTID_1":20,
    "STATUS":"Existing / Under Construction",
    "NAME":"Roosevelt Station",
    "STATION":"Roosevelt"
    }
  },
  {
    "type": "Feature",
    "geometry": {
       "type": "Point",
       "coordinates":  [ 1275526.198,244368.223 ]
    },
    "properties": {
    "OBJECTID_1":21,
    "STATUS":"Existing / Under Construction",
    "NAME":"U District Station",
    "STATION":"U District"
    }
  },
  {
    "type": "Feature",
    "geometry": {
       "type": "Point",
       "coordinates":  [ 1273741.777,229356.5831 ]
    },
    "properties": {
    "OBJECTID_1":22,
    "STATUS":"Existing / Under Construction",
    "NAME":"Capitol Hill Station",
    "STATION":"Capitol Hill"
    }
  },
  {
    "type": "Feature",
    "geometry": {
       "type": "Point",
       "coordinates":  [ 1241580.163,96489.83405 ]
    },
    "properties": {
    "OBJECTID_1":23,
    "STATUS":"Existing / Under Construction",
    "NAME":"Commerce Street",
    "STATION":"Commerce Street"
    }
  },
  {
    "type": "Feature",
    "geometry": {
       "type": "Point",
       "coordinates":  [ 1241446.777,97619.3331 ]
    },
    "properties": {
    "OBJECTID_1":24,
    "STATUS":"Existing / Under Construction",
    "NAME":"Theater District Station",
    "STATION":"Theater District / South 9th Street"
    }
  },
  {
    "type": "Feature",
    "geometry": {
       "type": "Point",
       "coordinates":  [ 1241746.122,95167.66609 ]
    },
    "properties": {
    "OBJECTID_1":25,
    "STATUS":"Existing / Under Construction",
    "NAME":"Convention Center Station",
    "STATION":"Convention Center / South 15th Street"
    }
  },
  {
    "type": "Feature",
    "geometry": {
       "type": "Point",
       "coordinates":  [ 1242190.004,93469.03891 ]
    },
    "properties": {
    "OBJECTID_1":26,
    "STATUS":"Existing / Under Construction",
    "NAME":"Union Station",
    "STATION":"Union Station / South 19th Street"
    }
  },
  {
    "type": "Feature",
    "geometry": {
       "type": "Point",
       "coordinates":  [ 1244264.306,91602.82611 ]
    },
    "properties": {
    "OBJECTID_1":27,
    "STATUS":"Existing / Under Construction",
    "NAME":"Tacoma Dome Station",
    "STATION":"Tacoma Dome"
    }
  },
  {
    "type": "Feature",
    "geometry": {
       "type": "Point",
       "coordinates":  [ 1242747.354,91347.0799 ]
    },
    "properties": {
    "OBJECTID_1":28,
    "STATUS":"Existing / Under Construction",
    "NAME":"South 25th Street Station",
    "STATION":"South 25th Street"
    }
  },
  {
    "type": "Feature",
    "geometry": {
       "type": "Point",
       "coordinates":  [ 1278007.826,240495.0122 ]
    },
    "properties": {
    "OBJECTID_1":29,
    "STATUS":"Existing / Under Construction",
    "NAME":"University of Washington Station",
    "STATION":"University of Washington"
    }
  },
  {
    "type": "Feature",
    "geometry": {
       "type": "Point",
       "coordinates":  [ 1278281.43,165905.8881 ]
    },
    "properties": {
    "OBJECTID_1":30,
    "STATUS":"Existing / Under Construction",
    "NAME":"Airport / SeaTac Station",
    "STATION":"Airport / SeaTac"
    }
  },
  {
    "type": "Feature",
    "geometry": {
       "type": "Point",
       "coordinates":  [ 1277922.219,157638.8929 ]
    },
    "properties": {
    "OBJECTID_1":31,
    "STATUS":"Existing / Under Construction",
    "NAME":"Angle Lake Station",
    "STATION":"Angle Lake"
    }
  },
  {
    "type": "Feature",
    "geometry": {
       "type": "Point",
       "coordinates":  [ 1294980.511,217698.8531 ]
    },
    "properties": {
    "OBJECTID_1":32,
    "STATUS":"Existing / Under Construction",
    "NAME":"Mercer Island Station",
    "STATION":"Mercer Island"
    }
  },
  {
    "type": "Feature",
    "geometry": {
       "type": "Point",
       "coordinates":  [ 1277409.111,218793.141 ]
    },
    "properties": {
    "OBJECTID_1":33,
    "STATUS":"Existing / Under Construction",
    "NAME":"Judkins Park Station",
    "STATION":"Judkins Park"
    }
  },
  {
    "type": "Feature",
    "geometry": {
       "type": "Point",
       "coordinates":  [ 1305538.93,216910.587 ]
    },
    "properties": {
    "OBJECTID_1":34,
    "STATUS":"Existing / Under Construction",
    "NAME":"South Bellevue Station",
    "STATION":"South Bellevue"
    }
  },
  {
    "type": "Feature",
    "geometry": {
       "type": "Point",
       "coordinates":  [ 1305492.754,224803.1109 ]
    },
    "properties": {
    "OBJECTID_1":35,
    "STATUS":"Existing / Under Construction",
    "NAME":"East Main Station",
    "STATION":"East Main"
    }
  },
  {
    "type": "Feature",
    "geometry": {
       "type": "Point",
       "coordinates":  [ 1305306.924,227373.0857 ]
    },
    "properties": {
    "OBJECTID_1":36,
    "STATUS":"Existing / Under Construction",
    "NAME":"Bellevue Downtown Station",
    "STATION":"Bellevue Downtown"
    }
  },
  {
    "type": "Feature",
    "geometry": {
       "type": "Point",
       "coordinates":  [ 1307376.864,228337.7889 ]
    },
    "properties": {
    "OBJECTID_1":37,
    "STATUS":"Existing / Under Construction",
    "NAME":"Wilburton Station",
    "STATION":"Wilburton"
    }
  },
  {
    "type": "Feature",
    "geometry": {
       "type": "Point",
       "coordinates":  [ 1308693.38,230432.8234 ]
    },
    "properties": {
    "OBJECTID_1":38,
    "STATUS":"Existing / Under Construction",
    "NAME":"Spring District/120th Station",
    "STATION":"Spring District/120th"
    }
  },
  {
    "type": "Feature",
    "geometry": {
       "type": "Point",
       "coordinates":  [ 1311886.418,230623.5871 ]
    },
    "properties": {
    "OBJECTID_1":39,
    "STATUS":"Existing / Under Construction",
    "NAME":"Bel-Red/130th Station",
    "STATION":"Bel-Red/130th"
    }
  },
  {
    "type": "Feature",
    "geometry": {
       "type": "Point",
       "coordinates":  [ 1318548.172,234836.6171 ]
    },
    "properties": {
    "OBJECTID_1":40,
    "STATUS":"Existing / Under Construction",
    "NAME":"Overlake Village Station",
    "STATION":"Overlake Village"
    }
  },
  {
    "type": "Feature",
    "geometry": {
       "type": "Point",
       "coordinates":  [ 1319905.126,237926.248 ]
    },
    "properties": {
    "OBJECTID_1":41,
    "STATUS":"Existing / Under Construction",
    "NAME":"Redmond Technology Center Station",
    "STATION":"Redmond Technology Center"
    }
  },
  {
    "type": "Feature",
    "geometry": {
       "type": "Point",
       "coordinates":  [ 1322255.056,248224.502 ]
    },
    "properties": {
    "OBJECTID_1":42,
    "STATUS":"Future",
    "NAME":"Downtown Redmond Station",
    "STATION":"Downtown Redmond"
    }
  },
  {
    "type": "Feature",
    "geometry": {
       "type": "Point",
       "coordinates":  [ 1325921.069,246017.4231 ]
    },
    "properties": {
    "OBJECTID_1":43,
    "STATUS":"Future",
    "NAME":"SE Redmond Station",
    "STATION":"SE Redmond"
    }
  },
  {
    "type": "Feature",
    "geometry": {
       "type": "Point",
       "coordinates":  [ 1281798.839,202501.4698 ]
    },
    "properties": {
    "OBJECTID_1":44,
    "STATUS":"Future",
    "NAME":"Graham St Station",
    "STATION":"Graham St"
    }
  },
  {
    "type": "Feature",
    "geometry": {
       "type": "Point",
       "coordinates":  [ 1281667.976,188372.918 ]
    },
    "properties": {
    "OBJECTID_1":45,
    "STATUS":"Future",
    "NAME":"Boeing Access Rd",
    "STATION":"Boeing Access Rd"
    }
  },
  {
    "type": "Feature",
    "geometry": {
       "type": "Point",
       "coordinates":  [ 1262580.135,211356.332 ]
    },
    "properties": {
    "OBJECTID_1":46,
    "STATUS":"Future",
    "NAME":"Delrdige Station (DEL-5, DEL-6)",
    "STATION":"Delridge"
    }
  },
  {
    "type": "Feature",
    "geometry": {
       "type": "Point",
       "coordinates":  [ 1259690.695,209964.9713 ]
    },
    "properties": {
    "OBJECTID_1":47,
    "STATUS":"Future",
    "NAME":"Avalon Station (WSJ-5)",
    "STATION":"West Seattle Junction"
    }
  },
  {
    "type": "Feature",
    "geometry": {
       "type": "Point",
       "coordinates":  [ 1269359.853,229566.0174 ]
    },
    "properties": {
    "OBJECTID_1":48,
    "STATUS":"Future",
    "NAME":"Denny Station (DT-2)",
    "STATION":"Downtown"
    }
  },
  {
    "type": "Feature",
    "geometry": {
       "type": "Point",
       "coordinates":  [ 1272138.759,220176.2386 ]
    },
    "properties": {
    "OBJECTID_1":49,
    "STATUS":"Future",
    "NAME":"Stadium Station (CID-1a)",
    "STATION":"CID"
    }
  },
  {
    "type": "Feature",
    "geometry": {
       "type": "Point",
       "coordinates":  [ 1271375.113,223600.8003 ]
    },
    "properties": {
    "OBJECTID_1":50,
    "STATUS":"Future",
    "NAME":"Midtown Station (DT-1)",
    "STATION":"Downtown"
    }
  },
  {
    "type": "Feature",
    "geometry": {
       "type": "Point",
       "coordinates":  [ 1269800.546,226520.4391 ]
    },
    "properties": {
    "OBJECTID_1":51,
    "STATUS":"Future",
    "NAME":"Westlake Station (DT-1)",
    "STATION":"Downtown"
    }
  },
  {
    "type": "Feature",
    "geometry": {
       "type": "Point",
       "coordinates":  [ 1267790.177,230572.2785 ]
    },
    "properties": {
    "OBJECTID_1":52,
    "STATUS":"Future",
    "NAME":"South Lake Union Station (DT-1)",
    "STATION":"Downtown"
    }
  },
  {
    "type": "Feature",
    "geometry": {
       "type": "Point",
       "coordinates":  [ 1264440.706,231091.1918 ]
    },
    "properties": {
    "OBJECTID_1":53,
    "STATUS":"Future",
    "NAME":"Seattle Center Station (DT-1)",
    "STATION":"Downtown"
    }
  },
  {
    "type": "Feature",
    "geometry": {
       "type": "Point",
       "coordinates":  [ 1260114.311,234364.326 ]
    },
    "properties": {
    "OBJECTID_1":54,
    "STATUS":"Future",
    "NAME":"Smith Cove Station (SIB-1)",
    "STATION":"South Interbay"
    }
  },
  {
    "type": "Feature",
    "geometry": {
       "type": "Point",
       "coordinates":  [ 1259180.674,240370.3855 ]
    },
    "properties": {
    "OBJECTID_1":55,
    "STATUS":"Future",
    "NAME":"IBB-1a Interbay Station",
    "STATION":"Interbay/Ballard"
    }
  },
  {
    "type": "Feature",
    "geometry": {
       "type": "Point",
       "coordinates":  [ 1260351.114,247499.0678 ]
    },
    "properties": {
    "OBJECTID_1":56,
    "STATUS":"Future",
    "NAME":"Ballard Station (IBB-1a, IBB-1b)",
    "STATION":"Interbay/Ballard"
    }
  },
  {
    "type": "Feature",
    "geometry": {
       "type": "Point",
       "coordinates":  [ 1257547.968,208508.4709 ]
    },
    "properties": {
    "OBJECTID_1":57,
    "STATUS":"Future",
    "NAME":"Alaska Junction Station (WSJ-3a, WSJ-5)",
    "STATION":"West Seattle Junction"
    }
  },
  {
    "type": "Feature",
    "geometry": {
       "type": "Point",
       "coordinates":  [ 1271708.03,215763.1578 ]
    },
    "properties": {
    "OBJECTID_1":58,
    "STATUS":"Future",
    "NAME":"SODO Station (WS SODO-1a Staggered)",
    "STATION":"SODO"
    }
  }
]
}