{
"type": "FeatureCollection",
"name": "lightStops2",
"crs": { "type": "name", "properties": { "name": "urn:ogc:def:crs:OGC:1.3:CRS84" } },
"features": [
{ "type": "Feature", "properties": { "OBJECTID_1": 1, "STATUS": "Existing / Under Construction", "NAME": "NE 145th Station", "STATION": "NE 145th" }, "geometry": { "type": "Point", "coordinates": [ -122.541073036770896, 47.729019920336384 ] } },
{ "type": "Feature", "properties": { "OBJECTID_1": 2, "STATUS": "Future", "NAME": "NE 130th Station", "STATION": "NE 130th" }, "geometry": { "type": "Point", "coordinates": [ -83.544135964430538, 24.688755061708346 ] } },
{ "type": "Feature", "properties": { "OBJECTID_1": 3, "STATUS": "Future", "NAME": "Shoreline Station", "STATION": "Shoreline" }, "geometry": { "type": "Point", "coordinates": [ -83.520470618229396, 24.82049116930807 ] } },
{ "type": "Feature", "properties": { "OBJECTID_1": 4, "STATUS": "Future", "NAME": "Mountlake Terrace Station", "STATION": "Mountlake Terrace" }, "geometry": { "type": "Point", "coordinates": [ -83.490128454329366, 24.886745624957193 ] } },
{ "type": "Feature", "properties": { "OBJECTID_1": 5, "STATUS": "Future", "NAME": "Lynnwood Station", "STATION": "Lynnwood" }, "geometry": { "type": "Point", "coordinates": [ -83.426069270175006, 24.980946980505461 ] } },
{ "type": "Feature", "properties": { "OBJECTID_1": 6, "STATUS": "Future", "NAME": "220th St SW Station", "STATION": "220th St SW" }, "geometry": { "type": "Point", "coordinates": [ -83.486522404053972, 24.931627566839257 ] } },
{ "type": "Feature", "properties": { "OBJECTID_1": 7, "STATUS": "Existing / Under Construction", "NAME": "Westlake Station", "STATION": "Westlake" }, "geometry": { "type": "Point", "coordinates": [ -83.634418310523458, 24.321828554173816 ] } },
{ "type": "Feature", "properties": { "OBJECTID_1": 8, "STATUS": "Existing / Under Construction", "NAME": "University Street Station", "STATION": "University Street" }, "geometry": { "type": "Point", "coordinates": [ -83.634746625852884, 24.309165153498856 ] } },
{ "type": "Feature", "properties": { "OBJECTID_1": 9, "STATUS": "Existing / Under Construction", "NAME": "Pioneer Square Station", "STATION": "Pioneer Square" }, "geometry": { "type": "Point", "coordinates": [ -83.626141034029644, 24.290201997553822 ] } },
{ "type": "Feature", "properties": { "OBJECTID_1": 10, "STATUS": "Existing / Under Construction", "NAME": "International District Station", "STATION": "International District / Chinatown" }, "geometry": { "type": "Point", "coordinates": [ -83.620726676255757, 24.275222475869658 ] } },
{ "type": "Feature", "properties": { "OBJECTID_1": 11, "STATUS": "Existing / Under Construction", "NAME": "Stadium Station", "STATION": "Stadium" }, "geometry": { "type": "Point", "coordinates": [ -83.622608922872473, 24.251002126415369 ] } },
{ "type": "Feature", "properties": { "OBJECTID_1": 12, "STATUS": "Existing / Under Construction", "NAME": "SODO Station", "STATION": "SODO" }, "geometry": { "type": "Point", "coordinates": [ -83.628419242899312, 24.217918524924023 ] } },
{ "type": "Feature", "properties": { "OBJECTID_1": 13, "STATUS": "Existing / Under Construction", "NAME": "Beacon Hill Station", "STATION": "Beacon Hill" }, "geometry": { "type": "Point", "coordinates": [ -83.591803214831302, 24.206799465482135 ] } },
{ "type": "Feature", "properties": { "OBJECTID_1": 14, "STATUS": "Existing / Under Construction", "NAME": "Mount Baker Station", "STATION": "Mount Baker" }, "geometry": { "type": "Point", "coordinates": [ -83.560475847387622, 24.192942833387274 ] } },
{ "type": "Feature", "properties": { "OBJECTID_1": 15, "STATUS": "Existing / Under Construction", "NAME": "Columbia City Station", "STATION": "Columbia City" }, "geometry": { "type": "Point", "coordinates": [ -83.557554549527254, 24.135676803527698 ] } },
{ "type": "Feature", "properties": { "OBJECTID_1": 16, "STATUS": "Existing / Under Construction", "NAME": "Othello Station", "STATION": "Othello" }, "geometry": { "type": "Point", "coordinates": [ -83.542703625615388, 24.060022995463026 ] } },
{ "type": "Feature", "properties": { "OBJECTID_1": 17, "STATUS": "Existing / Under Construction", "NAME": "Rainier Beach Station", "STATION": "Rainier Beach" }, "geometry": { "type": "Point", "coordinates": [ -83.545788106458204, 24.00772712553594 ] } },
{ "type": "Feature", "properties": { "OBJECTID_1": 18, "STATUS": "Existing / Under Construction", "NAME": "Tukwila International Blvd Station", "STATION": "Tukwila International Blvd" }, "geometry": { "type": "Point", "coordinates": [ -83.596808569962306, 23.817561059726373 ] } },
{ "type": "Feature", "properties": { "OBJECTID_1": 19, "STATUS": "Existing / Under Construction", "NAME": "Northgate Station", "STATION": "Northgate" }, "geometry": { "type": "Point", "coordinates": [ -83.565948580015672, 24.62093791743823 ] } },
{ "type": "Feature", "properties": { "OBJECTID_1": 20, "STATUS": "Existing / Under Construction", "NAME": "Roosevelt Station", "STATION": "Roosevelt" }, "geometry": { "type": "Point", "coordinates": [ -83.550801260669559, 24.529546012606581 ] } },
{ "type": "Feature", "properties": { "OBJECTID_1": 21, "STATUS": "Existing / Under Construction", "NAME": "U District Station", "STATION": "U District" }, "geometry": { "type": "Point", "coordinates": [ -83.555085205807401, 24.475136552368188 ] } },
{ "type": "Feature", "properties": { "OBJECTID_1": 22, "STATUS": "Existing / Under Construction", "NAME": "Capitol Hill Station", "STATION": "Capitol Hill" }, "geometry": { "type": "Point", "coordinates": [ -83.591313108748267, 24.340993514978322 ] } },
{ "type": "Feature", "properties": { "OBJECTID_1": 23, "STATUS": "Existing / Under Construction", "NAME": "Commerce Street", "STATION": "Commerce Street" }, "geometry": { "type": "Point", "coordinates": [ -84.062977626178537, 23.169361194920118 ] } },
{ "type": "Feature", "properties": { "OBJECTID_1": 24, "STATUS": "Existing / Under Construction", "NAME": "Theater District Station", "STATION": "Theater District / South 9th Street" }, "geometry": { "type": "Point", "coordinates": [ -84.062889709732872, 23.179820127695098 ] } },
{ "type": "Feature", "properties": { "OBJECTID_1": 25, "STATUS": "Existing / Under Construction", "NAME": "Convention Center Station", "STATION": "Convention Center / South 15th Street" }, "geometry": { "type": "Point", "coordinates": [ -84.062987101671993, 23.157106362243663 ] } },
{ "type": "Feature", "properties": { "OBJECTID_1": 26, "STATUS": "Existing / Under Construction", "NAME": "Union Station", "STATION": "Union Station / South 19th Street" }, "geometry": { "type": "Point", "coordinates": [ -84.060805459332741, 23.141095608011504 ] } },
{ "type": "Feature", "properties": { "OBJECTID_1": 27, "STATUS": "Existing / Under Construction", "NAME": "Tacoma Dome Station", "STATION": "Tacoma Dome" }, "geometry": { "type": "Point", "coordinates": [ -84.043322959844716, 23.12167396852125 ] } },
{ "type": "Feature", "properties": { "OBJECTID_1": 28, "STATUS": "Existing / Under Construction", "NAME": "South 25th Street Station", "STATION": "South 25th Street" }, "geometry": { "type": "Point", "coordinates": [ -84.058054144734342, 23.12108998373505 ] } },
{ "type": "Feature", "properties": { "OBJECTID_1": 29, "STATUS": "Existing / Under Construction", "NAME": "University of Washington Station", "STATION": "University of Washington" }, "geometry": { "type": "Point", "coordinates": [ -83.536077160180184, 24.437014497968956 ] } },
{ "type": "Feature", "properties": { "OBJECTID_1": 30, "STATUS": "Existing / Under Construction", "NAME": "Airport / SeaTac Station", "STATION": "Airport / SeaTac" }, "geometry": { "type": "Point", "coordinates": [ -83.627606642202821, 23.75884171373502 ] } },
{ "type": "Feature", "properties": { "OBJECTID_1": 31, "STATUS": "Existing / Under Construction", "NAME": "Angle Lake Station", "STATION": "Angle Lake" }, "geometry": { "type": "Point", "coordinates": [ -83.641391387469255, 23.68403621695985 ] } },
{ "type": "Feature", "properties": { "OBJECTID_1": 32, "STATUS": "Existing / Under Construction", "NAME": "Mercer Island Station", "STATION": "Mercer Island" }, "geometry": { "type": "Point", "coordinates": [ -83.401773407706472, 24.209606084529693 ] } },
{ "type": "Feature", "properties": { "OBJECTID_1": 33, "STATUS": "Existing / Under Construction", "NAME": "Judkins Park Station", "STATION": "Judkins Park" }, "geometry": { "type": "Point", "coordinates": [ -83.569376242808488, 24.240683044274146 ] } },
{ "type": "Feature", "properties": { "OBJECTID_1": 34, "STATUS": "Existing / Under Construction", "NAME": "South Bellevue Station", "STATION": "South Bellevue" }, "geometry": { "type": "Point", "coordinates": [ -83.301287999033036, 24.189609396498593 ] } },
{ "type": "Feature", "properties": { "OBJECTID_1": 35, "STATUS": "Existing / Under Construction", "NAME": "East Main Station", "STATION": "East Main" }, "geometry": { "type": "Point", "coordinates": [ -83.291526753453255, 24.261330240645052 ] } },
{ "type": "Feature", "properties": { "OBJECTID_1": 36, "STATUS": "Existing / Under Construction", "NAME": "Bellevue Downtown Station", "STATION": "Bellevue Downtown" }, "geometry": { "type": "Point", "coordinates": [ -83.289988202232536, 24.284888662425143 ] } },
{ "type": "Feature", "properties": { "OBJECTID_1": 37, "STATUS": "Existing / Under Construction", "NAME": "Wilburton Station", "STATION": "Wilburton" }, "geometry": { "type": "Point", "coordinates": [ -83.268821998785157, 24.291115769205021 ] } },
{ "type": "Feature", "properties": { "OBJECTID_1": 38, "STATUS": "Existing / Under Construction", "NAME": "Spring District/120th Station", "STATION": "Spring District/120th" }, "geometry": { "type": "Point", "coordinates": [ -83.253434906319754, 24.30852136555287 ] } },
{ "type": "Feature", "properties": { "OBJECTID_1": 39, "STATUS": "Existing / Under Construction", "NAME": "Bel-Red/130th Station", "STATION": "Bel-Red/130th" }, "geometry": { "type": "Point", "coordinates": [ -83.222459669767716, 24.306337260104879 ] } },
{ "type": "Feature", "properties": { "OBJECTID_1": 40, "STATUS": "Existing / Under Construction", "NAME": "Overlake Village Station", "STATION": "Overlake Village" }, "geometry": { "type": "Point", "coordinates": [ -83.152847171579168, 24.336372277957096 ] } },
{ "type": "Feature", "properties": { "OBJECTID_1": 41, "STATUS": "Existing / Under Construction", "NAME": "Redmond Technology Center Station", "STATION": "Redmond Technology Center" }, "geometry": { "type": "Point", "coordinates": [ -83.135736431127299, 24.362732249499096 ] } },
{ "type": "Feature", "properties": { "OBJECTID_1": 42, "STATUS": "Future", "NAME": "Downtown Redmond Station", "STATION": "Downtown Redmond" }, "geometry": { "type": "Point", "coordinates": [ -83.099571426001972, 24.45325053391516 ] } },
{ "type": "Feature", "properties": { "OBJECTID_1": 43, "STATUS": "Future", "NAME": "SE Redmond Station", "STATION": "SE Redmond" }, "geometry": { "type": "Point", "coordinates": [ -83.067156203600618, 24.428683458630342 ] } },
{ "type": "Feature", "properties": { "OBJECTID_1": 44, "STATUS": "Future", "NAME": "Graham St Station", "STATION": "Graham St" }, "geometry": { "type": "Point", "coordinates": [ -83.547800699428706, 24.087416815804865 ] } },
{ "type": "Feature", "properties": { "OBJECTID_1": 45, "STATUS": "Future", "NAME": "Boeing Access Rd", "STATION": "Boeing Access Rd" }, "geometry": { "type": "Point", "coordinates": [ -83.5669118834101, 23.95914823696296 ] } },
{ "type": "Feature", "properties": { "OBJECTID_1": 46, "STATUS": "Future", "NAME": "Delrdige Station (DEL-5, DEL-6)", "STATION": "Delridge" }, "geometry": { "type": "Point", "coordinates": [ -83.721366094675759, 24.190734411168314 ] } },
{ "type": "Feature", "properties": { "OBJECTID_1": 47, "STATUS": "Future", "NAME": "Avalon Station (WSJ-5)", "STATION": "West Seattle Junction" }, "geometry": { "type": "Point", "coordinates": [ -83.750889827312889, 24.181498554250666 ] } },
{ "type": "Feature", "properties": { "OBJECTID_1": 48, "STATUS": "Future", "NAME": "Denny Station (DT-2)", "STATION": "Downtown" }, "geometry": { "type": "Point", "coordinates": [ -83.6332563422352, 24.348111409649793 ] } },
{ "type": "Feature", "properties": { "OBJECTID_1": 49, "STATUS": "Future", "NAME": "Stadium Station (CID-1a)", "STATION": "CID" }, "geometry": { "type": "Point", "coordinates": [ -83.618339508139044, 24.259530844314014 ] } },
{ "type": "Feature", "properties": { "OBJECTID_1": 50, "STATUS": "Future", "NAME": "Midtown Station (DT-1)", "STATION": "Downtown" }, "geometry": { "type": "Point", "coordinates": [ -83.621371176464606, 24.291543370729112 ] } },
{ "type": "Feature", "properties": { "OBJECTID_1": 51, "STATUS": "Future", "NAME": "Westlake Station (DT-1)", "STATION": "Downtown" }, "geometry": { "type": "Point", "coordinates": [ -83.632850759747512, 24.319931060840432 ] } },
{ "type": "Feature", "properties": { "OBJECTID_1": 52, "STATUS": "Future", "NAME": "South Lake Union Station (DT-1)", "STATION": "Downtown" }, "geometry": { "type": "Point", "coordinates": [ -83.647110006708616, 24.359112918131949 ] } },
{ "type": "Feature", "properties": { "OBJECTID_1": 53, "STATUS": "Future", "NAME": "Seattle Center Station (DT-1)", "STATION": "Downtown" }, "geometry": { "type": "Point", "coordinates": [ -83.678729210460176, 24.367795524810759 ] } },
{ "type": "Feature", "properties": { "OBJECTID_1": 54, "STATUS": "Future", "NAME": "Smith Cove Station (SIB-1)", "STATION": "South Interbay" }, "geometry": { "type": "Point", "coordinates": [ -83.716319160246016, 24.402630061981441 ] } },
{ "type": "Feature", "properties": { "OBJECTID_1": 55, "STATUS": "Future", "NAME": "IBB-1a Interbay Station", "STATION": "Interbay/Ballard" }, "geometry": { "type": "Point", "coordinates": [ -83.717794597847302, 24.458260470945959 ] } },
{ "type": "Feature", "properties": { "OBJECTID_1": 56, "STATUS": "Future", "NAME": "Ballard Station (IBB-1a, IBB-1b)", "STATION": "Interbay/Ballard" }, "geometry": { "type": "Point", "coordinates": [ -83.69755361229069, 24.521585499437506 ] } },
{ "type": "Feature", "properties": { "OBJECTID_1": 57, "STATUS": "Future", "NAME": "Alaska Junction Station (WSJ-3a, WSJ-5)", "STATION": "West Seattle Junction" }, "geometry": { "type": "Point", "coordinates": [ -83.773308227614208, 24.170784103015087 ] } },
{ "type": "Feature", "properties": { "OBJECTID_1": 58, "STATUS": "Future", "NAME": "SODO Station (WS SODO-1a Staggered)", "STATION": "SODO" }, "geometry": { "type": "Point", "coordinates": [ -83.628044771193288, 24.219956037433349 ] } }
]
}
