{
"type": "FeatureCollection",
"name": "link4",
"crs": { "type": "name", "properties": { "name": "urn:ogc:def:crs:OGC:1.3:CRS84" } },
"features": [
{ "type": "Feature", "properties": { "LINK_TYPE": 1, "NAME": "Westlake Station", "STATION": "Westlake", "SEGMENT": "C", "STATUS": "COMPLETE", "STATUSNOTE": null }, "geometry": { "type": "Point", "coordinates": [ -122.336693580697101, 47.611542591829519 ] } },
{ "type": "Feature", "properties": { "LINK_TYPE": 1, "NAME": "University Street Station", "STATION": "University Street", "SEGMENT": "C", "STATUS": "COMPLETE", "STATUSNOTE": null }, "geometry": { "type": "Point", "coordinates": [ -122.335962417664504, 47.607817828359963 ] } },
{ "type": "Feature", "properties": { "LINK_TYPE": 1, "NAME": "Pioneer Square Station", "STATION": "Pioneer Square", "SEGMENT": "C", "STATUS": "COMPLETE", "STATUSNOTE": null }, "geometry": { "type": "Point", "coordinates": [ -122.331157988561628, 47.602567972624932 ] } },
{ "type": "Feature", "properties": { "LINK_TYPE": 1, "NAME": "International District Station", "STATION": "International District / Chinatown", "SEGMENT": "C", "STATUS": "COMPLETE", "STATUSNOTE": null }, "geometry": { "type": "Point", "coordinates": [ -122.327938294774555, 47.598357729510433 ] } },
{ "type": "Feature", "properties": { "LINK_TYPE": 1, "NAME": "Stadium Station", "STATION": "Stadium", "SEGMENT": "C", "STATUS": "COMPLETE", "STATUSNOTE": null }, "geometry": { "type": "Point", "coordinates": [ -122.327090438603321, 47.59111102727897 ] } },
{ "type": "Feature", "properties": { "LINK_TYPE": 1, "NAME": "SODO Station", "STATION": "SODO", "SEGMENT": "C", "STATUS": "COMPLETE", "STATUSNOTE": null }, "geometry": { "type": "Point", "coordinates": [ -122.327359327826215, 47.581077266762094 ] } },
{ "type": "Feature", "properties": { "LINK_TYPE": 1, "NAME": "Beacon Hill Station", "STATION": "Beacon Hill", "SEGMENT": "C", "STATUS": "COMPLETE", "STATUSNOTE": null }, "geometry": { "type": "Point", "coordinates": [ -122.311717510896742, 47.579505132734276 ] } },
{ "type": "Feature", "properties": { "LINK_TYPE": 1, "NAME": "Mount Baker Station", "STATION": "Mount Baker", "SEGMENT": "D", "STATUS": "COMPLETE", "STATUSNOTE": null }, "geometry": { "type": "Point", "coordinates": [ -122.29764453754845, 47.576556141200037 ] } },
{ "type": "Feature", "properties": { "LINK_TYPE": 1, "NAME": "Columbia City Station", "STATION": "Columbia City", "SEGMENT": "D", "STATUS": "COMPLETE", "STATUSNOTE": null }, "geometry": { "type": "Point", "coordinates": [ -122.292689692279481, 47.559735364768855 ] } },
{ "type": "Feature", "properties": { "LINK_TYPE": 1, "NAME": "Othello Station", "STATION": "Othello", "SEGMENT": "D", "STATUS": "COMPLETE", "STATUSNOTE": null }, "geometry": { "type": "Point", "coordinates": [ -122.281527324774942, 47.537989416514598 ] } },
{ "type": "Feature", "properties": { "LINK_TYPE": 1, "NAME": "Rainier Beach Station", "STATION": "Rainier Beach", "SEGMENT": "D", "STATUS": "COMPLETE", "STATUSNOTE": null }, "geometry": { "type": "Point", "coordinates": [ -122.279328650886285, 47.522393981353027 ] } },
{ "type": "Feature", "properties": { "LINK_TYPE": 1, "NAME": "Tukwila International Blvd Station", "STATION": "Tukwila International Blvd", "SEGMENT": "E", "STATUS": "COMPLETE", "STATUSNOTE": null }, "geometry": { "type": "Point", "coordinates": [ -122.288007951842829, 47.464009582568139 ] } },
{ "type": "Feature", "properties": { "LINK_TYPE": 3, "NAME": "Northgate Station", "STATION": "Northgate", "SEGMENT": "A", "STATUS": "COMPLETE", "STATUSNOTE": null }, "geometry": { "type": "Point", "coordinates": [ -122.328191920275145, 47.70304558271846 ] } },
{ "type": "Feature", "properties": { "LINK_TYPE": 3, "NAME": "Roosevelt Station", "STATION": "Roosevelt", "SEGMENT": "A", "STATUS": "COMPLETE", "STATUSNOTE": null }, "geometry": { "type": "Point", "coordinates": [ -122.31585727514215, 47.676640441230859 ] } },
{ "type": "Feature", "properties": { "LINK_TYPE": 3, "NAME": "U District Station", "STATION": "U District", "SEGMENT": "B", "STATUS": "COMPLETE", "STATUSNOTE": null }, "geometry": { "type": "Point", "coordinates": [ -122.314231094853028, 47.660430277089162 ] } },
{ "type": "Feature", "properties": { "LINK_TYPE": 3, "NAME": "Capitol Hill Station", "STATION": "Capitol Hill", "SEGMENT": "B", "STATUS": "COMPLETE", "STATUSNOTE": null }, "geometry": { "type": "Point", "coordinates": [ -122.320125909545368, 47.619062800726255 ] } },
{ "type": "Feature", "properties": { "LINK_TYPE": 2, "NAME": "Commerce Street", "STATION": "Commerce Street", "SEGMENT": null, "STATUS": "COMPLETE", "STATUSNOTE": null }, "geometry": { "type": "Point", "coordinates": [ -122.439312938309939, 47.253114285341859 ] } },
{ "type": "Feature", "properties": { "LINK_TYPE": 2, "NAME": "Theater District Station", "STATION": "Theater District / South 9th Street", "SEGMENT": null, "STATUS": "COMPLETE", "STATUSNOTE": null }, "geometry": { "type": "Point", "coordinates": [ -122.439994328342266, 47.25619919322245 ] } },
{ "type": "Feature", "properties": { "LINK_TYPE": 2, "NAME": "Convention Center Station", "STATION": "Convention Center / South 15th Street", "SEGMENT": "TAC", "STATUS": "COMPLETE", "STATUSNOTE": null }, "geometry": { "type": "Point", "coordinates": [ -122.438493183858412, 47.249500628717747 ] } },
{ "type": "Feature", "properties": { "LINK_TYPE": 2, "NAME": "Union Station", "STATION": "Union Station / South 19th Street", "SEGMENT": "TAC", "STATUS": "COMPLETE", "STATUSNOTE": null }, "geometry": { "type": "Point", "coordinates": [ -122.436564039342358, 47.244869207185424 ] } },
{ "type": "Feature", "properties": { "LINK_TYPE": 2, "NAME": "Tacoma Dome Station", "STATION": "Tacoma Dome", "SEGMENT": "TAC", "STATUS": "COMPLETE", "STATUSNOTE": null }, "geometry": { "type": "Point", "coordinates": [ -122.428105235423743, 47.239833716353367 ] } },
{ "type": "Feature", "properties": { "LINK_TYPE": 2, "NAME": "South 25th Street Station", "STATION": "South 25th Street", "SEGMENT": "TAC", "STATUS": "COMPLETE", "STATUSNOTE": null }, "geometry": { "type": "Point", "coordinates": [ -122.434199742320402, 47.239105942647242 ] } },
{ "type": "Feature", "properties": { "LINK_TYPE": 3, "NAME": "University of Washington Station", "STATION": "University of Washington", "SEGMENT": "B", "STATUS": "COMPLETE", "STATUSNOTE": null }, "geometry": { "type": "Point", "coordinates": [ -122.303623242309186, 47.650066216015269 ] } },
{ "type": "Feature", "properties": { "LINK_TYPE": 4, "NAME": "Airport / SeaTac Station", "STATION": "Airport / SeaTac", "SEGMENT": "F", "STATUS": "COMPLETE", "STATUSNOTE": null }, "geometry": { "type": "Point", "coordinates": [ -122.296813782377157, 47.445384136415626 ] } },
{ "type": "Feature", "properties": { "LINK_TYPE": 5, "NAME": "South 200th Street Station", "STATION": "S. 200th Street", "SEGMENT": "F", "STATUS": "COMPLETE", "STATUSNOTE": null }, "geometry": { "type": "Point", "coordinates": [ -122.297711373929189, 47.422704595104179 ] } },
{ "type": "Feature", "properties": { "LINK_TYPE": 8, "NAME": "Shoreline South/145th Station", "STATION": "Shoreline South/145th", "SEGMENT": "Lynnwood", "STATUS": "COMPLETE", "STATUSNOTE": null }, "geometry": { "type": "Point", "coordinates": [ -122.325217431466072, 47.736097369470187 ] } },
{ "type": "Feature", "properties": { "LINK_TYPE": 8, "NAME": "Shoreline North/185th Station", "STATION": "Shoreline North/185th", "SEGMENT": "Lynnwood", "STATUS": "COMPLETE", "STATUSNOTE": null }, "geometry": { "type": "Point", "coordinates": [ -122.322834805383067, 47.764077183796623 ] } },
{ "type": "Feature", "properties": { "LINK_TYPE": 8, "NAME": "Mountlake Terrace Station", "STATION": "Mountlake Terrace", "SEGMENT": "Lynnwood", "STATUS": "COMPLETE", "STATUSNOTE": null }, "geometry": { "type": "Point", "coordinates": [ -122.31477526648942, 47.784998214562066 ] } },
{ "type": "Feature", "properties": { "LINK_TYPE": 8, "NAME": "Lynnwood City Center Station", "STATION": "Lynnwood City Center", "SEGMENT": "Lynnwood", "STATUS": "COMPLETE", "STATUSNOTE": null }, "geometry": { "type": "Point", "coordinates": [ -122.294737379875144, 47.81563486847989 ] } },
{ "type": "Feature", "properties": { "LINK_TYPE": 11, "NAME": "South 272nd Street Station", "STATION": "South 272nd Street", "SEGMENT": "Federal Way", "STATUS": "CONST", "STATUSNOTE": "Under Construction" }, "geometry": { "type": "Point", "coordinates": [ -122.297384587700847, 47.359374409071982 ] } },
{ "type": "Feature", "properties": { "LINK_TYPE": 11, "NAME": "Federal Way Transit Center Station", "STATION": "Federal Way Transit Center", "SEGMENT": "Federal Way", "STATUS": "CONST", "STATUSNOTE": "Under Construction" }, "geometry": { "type": "Point", "coordinates": [ -122.303848048611897, 47.315860744746573 ] } },
{ "type": "Feature", "properties": { "LINK_TYPE": 11, "NAME": "Kent/Des Moines Station", "STATION": "Kent/Des Moines", "SEGMENT": "Federal Way", "STATUS": "CONST", "STATUSNOTE": "Under Construction" }, "geometry": { "type": "Point", "coordinates": [ -122.294409430778302, 47.389494008657486 ] } },
{ "type": "Feature", "properties": { "LINK_TYPE": 7, "NAME": "Mercer Island Station", "STATION": "Mercer Island", "SEGMENT": "East Link", "STATUS": "CONST", "STATUSNOTE": "Under Construction" }, "geometry": { "type": "Point", "coordinates": [ -122.233229853853715, 47.588200197709995 ] } },
{ "type": "Feature", "properties": { "LINK_TYPE": 7, "NAME": "Judkins Park Station", "STATION": "Judkins Park", "SEGMENT": "East Link", "STATUS": "CONST", "STATUSNOTE": "Under Construction" }, "geometry": { "type": "Point", "coordinates": [ -122.304506723287119, 47.590301001478139 ] } },
{ "type": "Feature", "properties": { "LINK_TYPE": 7, "NAME": "South Bellevue Station", "STATION": "South Bellevue", "SEGMENT": "East Link", "STATUS": "COMPLETE", "STATUSNOTE": null }, "geometry": { "type": "Point", "coordinates": [ -122.190394002340568, 47.586558072197271 ] } },
{ "type": "Feature", "properties": { "LINK_TYPE": 7, "NAME": "East Main Station", "STATION": "East Main", "SEGMENT": "East Link", "STATUS": "COMPLETE", "STATUSNOTE": null }, "geometry": { "type": "Point", "coordinates": [ -122.191145444946955, 47.608189744709478 ] } },
{ "type": "Feature", "properties": { "LINK_TYPE": 7, "NAME": "Bellevue Downtown Station", "STATION": "Bellevue Downtown", "SEGMENT": "East Link", "STATUS": "COMPLETE", "STATUSNOTE": null }, "geometry": { "type": "Point", "coordinates": [ -122.192082630702714, 47.61522521133891 ] } },
{ "type": "Feature", "properties": { "LINK_TYPE": 7, "NAME": "Wilburton Station", "STATION": "Wilburton", "SEGMENT": "East Link", "STATUS": "COMPLETE", "STATUSNOTE": null }, "geometry": { "type": "Point", "coordinates": [ -122.183760137358476, 47.617969422032765 ] } },
{ "type": "Feature", "properties": { "LINK_TYPE": 7, "NAME": "Spring District/120th Station", "STATION": "Spring District/120th", "SEGMENT": "East Link", "STATUS": "COMPLETE", "STATUSNOTE": null }, "geometry": { "type": "Point", "coordinates": [ -122.178571455603191, 47.623775272821163 ] } },
{ "type": "Feature", "properties": { "LINK_TYPE": 7, "NAME": "Bel-Red/130th Station", "STATION": "Bel-Red/130th", "SEGMENT": "East Link", "STATUS": "COMPLETE", "STATUSNOTE": null }, "geometry": { "type": "Point", "coordinates": [ -122.16563871037097, 47.624450469799648 ] } },
{ "type": "Feature", "properties": { "LINK_TYPE": 7, "NAME": "Overlake Village Station", "STATION": "Overlake Village", "SEGMENT": "East Link", "STATUS": "COMPLETE", "STATUSNOTE": null }, "geometry": { "type": "Point", "coordinates": [ -122.138918066189078, 47.636311785217323 ] } },
{ "type": "Feature", "properties": { "LINK_TYPE": 7, "NAME": "Redmond Technology Station", "STATION": "Redmond Technology", "SEGMENT": "East Link", "STATUS": "COMPLETE", "STATUSNOTE": null }, "geometry": { "type": "Point", "coordinates": [ -122.13362671701519, 47.64484374256309 ] } },
{ "type": "Feature", "properties": { "LINK_TYPE": 7, "NAME": "Downtown Redmond Station", "STATION": "Downtown Redmond", "SEGMENT": "East Link", "STATUS": "CONST", "STATUSNOTE": "Under Construction" }, "geometry": { "type": "Point", "coordinates": [ -122.118478695433112, 47.671647050090641 ] } },
{ "type": "Feature", "properties": { "LINK_TYPE": 7, "NAME": "SE Redmond Station", "STATION": "SE Redmond", "SEGMENT": "East Link", "STATUS": "CONST", "STATUSNOTE": "Under Construction" }, "geometry": { "type": "Point", "coordinates": [ -122.109798248819573, 47.667265437887075 ] } },
{ "type": "Feature", "properties": { "LINK_TYPE": 9, "NAME": "Old City Hall Station", "STATION": "Old City Hall", "SEGMENT": "HTLE", "STATUS": "COMPLETE", "STATUSNOTE": null }, "geometry": { "type": "Point", "coordinates": [ -122.440326890411228, 47.257505340695047 ] } },
{ "type": "Feature", "properties": { "LINK_TYPE": 9, "NAME": "S 4th Station", "STATION": "S 4th", "SEGMENT": "HTLE", "STATUS": "COMPLETE", "STATUSNOTE": null }, "geometry": { "type": "Point", "coordinates": [ -122.442489305421148, 47.261093663317972 ] } },
{ "type": "Feature", "properties": { "LINK_TYPE": 9, "NAME": "Stadium District Station", "STATION": "Stadium District", "SEGMENT": "HTLE", "STATUS": "COMPLETE", "STATUSNOTE": null }, "geometry": { "type": "Point", "coordinates": [ -122.448440744512979, 47.264616294748578 ] } },
{ "type": "Feature", "properties": { "LINK_TYPE": 9, "NAME": "St. Joseph Station", "STATION": "St. Joseph", "SEGMENT": "HTLE", "STATUS": "COMPLETE", "STATUSNOTE": null }, "geometry": { "type": "Point", "coordinates": [ -122.450058054644771, 47.244728320625946 ] } },
{ "type": "Feature", "properties": { "LINK_TYPE": 9, "NAME": "Hilltop District Station", "STATION": "Hilltop District", "SEGMENT": "HTLE", "STATUS": "COMPLETE", "STATUSNOTE": null }, "geometry": { "type": "Point", "coordinates": [ -122.451710292765355, 47.251998589830805 ] } },
{ "type": "Feature", "properties": { "LINK_TYPE": 9, "NAME": "6th Avenue Station", "STATION": "6th Avenue", "SEGMENT": "HTLE", "STATUS": "COMPLETE", "STATUSNOTE": null }, "geometry": { "type": "Point", "coordinates": [ -122.452884615183081, 47.257140053769838 ] } },
{ "type": "Feature", "properties": { "LINK_TYPE": 9, "NAME": "Tacoma General Station", "STATION": "Tacoma General", "SEGMENT": "HTLE", "STATUS": "COMPLETE", "STATUSNOTE": null }, "geometry": { "type": "Point", "coordinates": [ -122.453584951433541, 47.260237366740412 ] } }
]
}
